{"type": "FeatureCollection", "features": [ {"type": "Feature", "properties": {"norad_id": 36533, "name": "COSMOS 2251 DEB", "group": "cosmos-2251-debris", "lat": 62.02613462828641, "lon": 157.39610235385058, "alt_km": 750.76519317986, "timestamp": "2025-12-07T11:27:50.404502+00:00", "meta": {"OBJECT_NAME": "COSMOS 2251 DEB", "OBJECT_ID": "1993-036BCT", "EPOCH": "2025-12-05T09:28:22.802304", "MEAN_MOTION": 14.49771796, "ECCENTRICITY": 0.00491042, "INCLINATION": 74.0105, "RA_OF_ASC_NODE": 128.6364, "ARG_OF_PERICENTER": 279.0553, "MEAN_ANOMALY": 80.5052, "EPHEMERIS_TYPE": 0, "CLASSIFICATION_TYPE": "U", "NORAD_CAT_ID": 36533, "ELEMENT_SET_NO": 999, "REV_AT_EPOCH": 84378, "BSTAR": 0.00081257397, "MEAN_MOTION_DOT": 3.153e-05, "MEAN_MOTION_DDOT": 0}, "tle": {"line1": "1 36533U 93036BCT 25339.39470836  .00003153  00000+0  81257-3 0  9990", "line2": "2 36533  74.0105 128.6364 0049104 279.0553  80.5052 14.49771796843783"}}, "geometry": {"type": "Point", "coordinates": [157.39610235385058, 62.02613462828641]}}, {"type": "Feature", "properties": {"norad_id": 36539, "name": "COSMOS 2251 DEB", "group": "cosmos-2251-debris", "lat": 73.92301406375644, "lon": 148.933591034102, "alt_km": 698.7037410452986, "timestamp": "2025-12-07T11:27:50.404513+00:00", "meta": {"OBJECT_NAME": "COSMOS 2251 DEB", "OBJECT_ID": "1993-036BCZ", "EPOCH": "2025-12-06T21:53:46.408416", "MEAN_MOTION": 14.59239711, "ECCENTRICITY": 0.00275399, "INCLINATION": 74.0247, "RA_OF_ASC_NODE": 66.2961, "ARG_OF_PERICENTER": 212.2795, "MEAN_ANOMALY": 147.6686, "EPHEMERIS_TYPE": 0, "CLASSIFICATION_TYPE": "U", "NORAD_CAT_ID": 36539, "ELEMENT_SET_NO": 999, "REV_AT_EPOCH": 83862, "BSTAR": 0.0012536084, "MEAN_MOTION_DOT": 5.923e-05, "MEAN_MOTION_DDOT": 0}, "tle": {"line1": "1 36539U 93036BCZ 25340.91234269  .00005923  00000+0  12536-2 0  9994", "line2": "2 36539  74.0247  66.2961 0027539 212.2795 147.6686 14.59239711838623"}}, "geometry": {"type": "Point", "coordinates": [148.933591034102, 73.92301406375644]}}, {"type": "Feature", "properties": {"norad_id": 36540, "name": "COSMOS 2251 DEB", "group": "cosmos-2251-debris", "lat": 61.565242469007735, "lon": -137.52920358584169, "alt_km": 702.398097223876, "timestamp": "2025-12-07T11:27:50.404523+00:00", "meta": {"OBJECT_NAME": "COSMOS 2251 DEB", "OBJECT_ID": "1993-036BDA", "EPOCH": "2025-12-06T15:24:19.698624", "MEAN_MOTION": 14.58398938, "ECCENTRICITY": 0.00152428, "INCLINATION": 74.0275, "RA_OF_ASC_NODE": 192.1274, "ARG_OF_PERICENTER": 262.6337, "MEAN_ANOMALY": 97.3096, "EPHEMERIS_TYPE": 0, "CLASSIFICATION_TYPE": "U", "NORAD_CAT_ID": 36540, "ELEMENT_SET_NO": 999, "REV_AT_EPOCH": 85921, "BSTAR": 0.0017594671, "MEAN_MOTION_DOT": 8.148e-05, "MEAN_MOTION_DDOT": 0}, "tle": {"line1": "1 36540U 93036BDA 25340.64189466  .00008148  00000+0  17595-2 0  9996", "line2": "2 36540  74.0275 192.1274 0015242 262.6337  97.3096 14.58398938859211"}}, "geometry": {"type": "Point", "coordinates": [-137.52920358584169, 61.565242469007735]}}, {"type": "Feature", "properties": {"norad_id": 36550, "name": "COSMOS 2251 DEB", "group": "cosmos-2251-debris", "lat": 41.014324824010934, "lon": 7.854558867595993, "alt_km": 823.0169974485034, "timestamp": "2025-12-07T11:27:50.404534+00:00", "meta": {"OBJECT_NAME": "COSMOS 2251 DEB", "OBJECT_ID": "1993-036BDL", "EPOCH": "2025-12-05T23:29:18.021984", "MEAN_MOTION": 14.27168955, "ECCENTRICITY": 0.00788112, "INCLINATION": 74.0447, "RA_OF_ASC_NODE": 204.9723, "ARG_OF_PERICENTER": 257.0912, "MEAN_ANOMALY": 102.1425, "EPHEMERIS_TYPE": 0, "CLASSIFICATION_TYPE": "U", "NORAD_CAT_ID": 36550, "ELEMENT_SET_NO": 999, "REV_AT_EPOCH": 84499, "BSTAR": 0.0010210292, "MEAN_MOTION_DOT": 2.55e-05, "MEAN_MOTION_DDOT": 0}, "tle": {"line1": "1 36550U 93036BDL 25339.97868081  .00002550  00000+0  10210-2 0  9996", "line2": "2 36550  74.0447 204.9723 0078811 257.0912 102.1425 14.27168955844992"}}, "geometry": {"type": "Point", "coordinates": [7.854558867595993, 41.014324824010934]}}, {"type": "Feature", "properties": {"norad_id": 36551, "name": "COSMOS 2251 DEB", "group": "cosmos-2251-debris", "lat": -28.301006831633437, "lon": -145.50672731057767, "alt_km": 585.7063373564624, "timestamp": "2025-12-07T11:27:50.404544+00:00", "meta": {"OBJECT_NAME": "COSMOS 2251 DEB", "OBJECT_ID": "1993-036BDM", "EPOCH": "2025-12-06T20:08:51.036576", "MEAN_MOTION": 15.02288962, "ECCENTRICITY": 0.00510444, "INCLINATION": 73.8878, "RA_OF_ASC_NODE": 26.8516, "ARG_OF_PERICENTER": 336.4781, "MEAN_ANOMALY": 23.4071, "EPHEMERIS_TYPE": 0, "CLASSIFICATION_TYPE": "U", "NORAD_CAT_ID": 36551, "ELEMENT_SET_NO": 999, "REV_AT_EPOCH": 66843, "BSTAR": 0.0021918533, "MEAN_MOTION_DOT": 0.0002986, "MEAN_MOTION_DDOT": 0}, "tle": {"line1": "1 36551U 93036BDM 25340.83947959  .00029860  00000+0  21919-2 0  9997", "line2": "2 36551  73.8878  26.8516 0051044 336.4781  23.4071 15.02288962668434"}}, "geometry": {"type": "Point", "coordinates": [-145.50672731057767, -28.301006831633437]}}, {"type": "Feature", "properties": {"norad_id": 36557, "name": "COSMOS 2251 DEB", "group": "cosmos-2251-debris", "lat": -61.22472513030953, "lon": 105.07096411561197, "alt_km": 628.4608550465409, "timestamp": "2025-12-07T11:27:50.404554+00:00", "meta": {"OBJECT_NAME": "COSMOS 2251 DEB", "OBJECT_ID": "1993-036BDT", "EPOCH": "2025-12-05T17:31:03.797184", "MEAN_MOTION": 14.7773075, "ECCENTRICITY": 0.00207314, "INCLINATION": 73.9789, "RA_OF_ASC_NODE": 140.0591, "ARG_OF_PERICENTER": 291.0681, "MEAN_ANOMALY": 68.8277, "EPHEMERIS_TYPE": 0, "CLASSIFICATION_TYPE": "U", "NORAD_CAT_ID": 36557, "ELEMENT_SET_NO": 999, "REV_AT_EPOCH": 33793, "BSTAR": 0.0052902478, "MEAN_MOTION_DOT": 0.00038255, "MEAN_MOTION_DDOT": 0}, "tle": {"line1": "1 36557U 93036BDT 25339.72990506  .00038255  00000+0  52902-2 0  9999", "line2": "2 36557  73.9789 140.0591 0020731 291.0681  68.8277 14.77730750337935"}}, "geometry": {"type": "Point", "coordinates": [105.07096411561197, -61.22472513030953]}}, {"type": "Feature", "properties": {"norad_id": 36558, "name": "COSMOS 2251 DEB", "group": "cosmos-2251-debris", "lat": -53.79454241217475, "lon": 141.49479058741042, "alt_km": 709.1183071970281, "timestamp": "2025-12-07T11:27:50.404564+00:00", "meta": {"OBJECT_NAME": "COSMOS 2251 DEB", "OBJECT_ID": "1993-036BDU", "EPOCH": "2025-12-06T06:01:43.478688", "MEAN_MOTION": 14.55287129, "ECCENTRICITY": 0.00130881, "INCLINATION": 74.0413, "RA_OF_ASC_NODE": 166.8264, "ARG_OF_PERICENTER": 255.1947, "MEAN_ANOMALY": 104.7766, "EPHEMERIS_TYPE": 0, "CLASSIFICATION_TYPE": "U", "NORAD_CAT_ID": 36558, "ELEMENT_SET_NO": 999, "REV_AT_EPOCH": 85174, "BSTAR": 0.0015050875, "MEAN_MOTION_DOT": 6.507e-05, "MEAN_MOTION_DDOT": 0}, "tle": {"line1": "1 36558U 93036BDU 25340.25119767  .00006507  00000+0  15051-2 0  9991", "line2": "2 36558  74.0413 166.8264 0013088 255.1947 104.7766 14.55287129851744"}}, "geometry": {"type": "Point", "coordinates": [141.49479058741042, -53.79454241217475]}}, {"type": "Feature", "properties": {"norad_id": 36559, "name": "COSMOS 2251 DEB", "group": "cosmos-2251-debris", "lat": -16.582003507332423, "lon": -156.3349505046155, "alt_km": 1066.3125583073906, "timestamp": "2025-12-07T11:27:50.404574+00:00", "meta": {"OBJECT_NAME": "COSMOS 2251 DEB", "OBJECT_ID": "1993-036BDV", "EPOCH": "2025-12-03T03:17:00.548160", "MEAN_MOTION": 13.95062123, "ECCENTRICITY": 0.02603187, "INCLINATION": 74.1298, "RA_OF_ASC_NODE": 26.2197, "ARG_OF_PERICENTER": 61.9669, "MEAN_ANOMALY": 300.7529, "EPHEMERIS_TYPE": 0, "CLASSIFICATION_TYPE": "U", "NORAD_CAT_ID": 36559, "ELEMENT_SET_NO": 999, "REV_AT_EPOCH": 80960, "BSTAR": 0.0032733881, "MEAN_MOTION_DOT": 5.835e-05, "MEAN_MOTION_DDOT": 0}, "tle": {"line1": "1 36559U 93036BDV 25337.13681190  .00005835  00000+0  32734-2 0  9999", "line2": "2 36559  74.1298  26.2197 0260318  61.9669 300.7529 13.95062123809606"}}, "geometry": {"type": "Point", "coordinates": [-156.3349505046155, -16.582003507332423]}}, {"type": "Feature", "properties": {"norad_id": 36614, "name": "COSMOS 2251 DEB", "group": "cosmos-2251-debris", "lat": -44.930548033191485, "lon": 21.248119248402055, "alt_km": 688.556746541457, "timestamp": "2025-12-07T11:27:50.404584+00:00", "meta": {"OBJECT_NAME": "COSMOS 2251 DEB", "OBJECT_ID": "1993-036BEC", "EPOCH": "2025-12-03T20:55:07.059072", "MEAN_MOTION": 14.60089968, "ECCENTRICITY": 0.0016551, "INCLINATION": 74.0216, "RA_OF_ASC_NODE": 191.525, "ARG_OF_PERICENTER": 261.9036, "MEAN_ANOMALY": 98.0252, "EPHEMERIS_TYPE": 0, "CLASSIFICATION_TYPE": "U", "NORAD_CAT_ID": 36614, "ELEMENT_SET_NO": 999, "REV_AT_EPOCH": 65483, "BSTAR": 0.0023551, "MEAN_MOTION_DOT": 0.00011335, "MEAN_MOTION_DDOT": 0}, "tle": {"line1": "1 36614U 93036BEC 25337.87160948  .00011335  00000+0  23551-2 0  9994", "line2": "2 36614  74.0216 191.5250 0016551 261.9036  98.0252 14.60089968654833"}}, "geometry": {"type": "Point", "coordinates": [21.248119248402055, -44.930548033191485]}}, {"type": "Feature", "properties": {"norad_id": 36622, "name": "COSMOS 2251 DEB", "group": "cosmos-2251-debris", "lat": -8.999256327699287, "lon": 153.19145921025626, "alt_km": 619.9775999465774, "timestamp": "2025-12-07T11:27:50.404595+00:00", "meta": {"OBJECT_NAME": "COSMOS 2251 DEB", "OBJECT_ID": "1993-036BEL", "EPOCH": "2025-12-05T18:50:31.173792", "MEAN_MOTION": 14.76102152, "ECCENTRICITY": 0.00686855, "INCLINATION": 74.0122, "RA_OF_ASC_NODE": 159.1111, "ARG_OF_PERICENTER": 295.8754, "MEAN_ANOMALY": 63.5348, "EPHEMERIS_TYPE": 0, "CLASSIFICATION_TYPE": "U", "NORAD_CAT_ID": 36622, "ELEMENT_SET_NO": 999, "REV_AT_EPOCH": 66647, "BSTAR": 0.0011321064, "MEAN_MOTION_DOT": 8.096e-05, "MEAN_MOTION_DDOT": 0}, "tle": {"line1": "1 36622U 93036BEL 25339.78508303  .00008096  00000+0  11321-2 0  9998", "line2": "2 36622  74.0122 159.1111 0068685 295.8754  63.5348 14.76102152666476"}}, "geometry": {"type": "Point", "coordinates": [153.19145921025626, -8.999256327699287]}}]}